{
"type": "FeatureCollection",
"name": "casa_boundary",
"crs": { "type": "name", "properties": { "name": "urn:ogc:def:crs:OGC:1.3:CRS84" } },
"features": [
{ "type": "Feature", "properties": { }, "geometry": { "type": "Polygon", "coordinates": [ [ [ -7.6618271, 33.4946807 ], [ -7.6697059, 33.4949266 ], [ -7.6706779, 33.4951336 ], [ -7.7467251, 33.5463842 ], [ -7.7360078, 33.5614511 ], [ -7.6775756, 33.5956024 ], [ -7.6508265, 33.6111499 ], [ -7.5008646, 33.6401354 ], [ -7.4664104, 33.6245653 ], [ -7.4602346, 33.6208552 ], [ -7.4580113, 33.6182969 ], [ -7.483251, 33.5684137 ], [ -7.5337296, 33.5309382 ], [ -7.5576734, 33.5207363 ], [ -7.5586358, 33.5204057 ], [ -7.6275777, 33.5004944 ], [ -7.6344999, 33.4988014 ], [ -7.6618271, 33.4946807 ] ] ] } }
]
}
